0 CZ-4 DEB
1 20879U 90081AP  13284.18762025  .00000862  00000-0  62737-3 0  4600
2 20879 099.2852 351.3800 0110018 245.2183 177.0308 13.96255462167350
0 CZ-4 DEB
1 20879U 90081AP  13286.19358182  .00000940  00000-0  68142-3 0  4612
2 20879 099.2852 353.4032 0110077 239.7399 180.0685 13.96260579167630
0 CZ-4 DEB
1 20879U 90081AP  13288.20053148  .00001162  00000-0  83377-3 0  4625
2 20879 099.2849 355.4276 0110218 234.3233 188.0400 13.96267565167919
0 CZ-4 DEB
1 20879U 90081AP  13289.41843872  .00000862  00000-0  62663-3 0  4632
2 20879 099.2846 356.6560 0110321 231.0277 189.9046 13.96271547168082
0 CZ-4 DEB
1 20879U 90081AP  13290.42191211  .00000843  00000-0  61377-3 0  4649
2 20879 099.2844 357.6682 0110400 228.3206 193.9132 13.96274128168220
0 CZ-4 DEB
1 20879U 90081AP  13291.42525701  .00000752  00000-0  55043-3 0  4658
2 20879 099.2841 358.6801 0110509 225.6265 197.2733 13.96276545168360
0 CZ-4 DEB
1 20879U 90081AP  13292.42974721  .00000728  00000-0  53412-3 0  4661
2 20879 099.2839 359.6933 0110594 222.9124 206.4172 13.96278484168502
0 CZ-4 DEB
1 20879U 90081AP  13293.80422770  .00000718  00000-0  52681-3 0  4673
2 20879 099.2837 001.0794 0110726 219.2096 275.3465 13.96280949168696
0 CZ-4 DEB
1 20879U 90081AP  13294.80774285  .00000714  00000-0  52394-3 0  4683
2 20879 099.2836 002.0913 0110806 216.5011 279.6034 13.96283073168831
0 CZ-4 DEB
1 20879U 90081AP  13296.14782197  .00000713  00000-0  52313-3 0  4694
2 20879 099.2835 003.4427 0110896 212.8830 175.6401 13.96285402169025
